{
  "type": "FeatureCollection",
  "name": "ner_historical_floods",
  "crs": {
    "type": "name",
    "properties": {
      "name": "urn:ogc:def:crs:OGC:1.3:CRS84"
    }
  },
  "features": [
    {
      "type": "Feature",
      "geometry": {
        "type": "Point",
        "coordinates": [
          93.17,
          26.58
        ]
      },
      "properties": {
        "event_date": "2024-07-04",
        "year": 2024,
        "location_name": "Kaziranga National Park",
        "state": "Assam",
        "river_system": "Brahmaputra",
        "estimated_inundation_km2": 430.0,
        "severity": "EXTREME",
        "source": "ASDMA / CWC"
      }
    },
    {
      "type": "Feature",
      "geometry": {
        "type": "Point",
        "coordinates": [
          94.2,
          26.95
        ]
      },
      "properties": {
        "event_date": "2024-07-02",
        "year": 2024,
        "location_name": "Majuli River Island",
        "state": "Assam",
        "river_system": "Brahmaputra / Subansiri",
        "estimated_inundation_km2": 320.0,
        "severity": "HIGH",
        "source": "ASDMA"
      }
    },
    {
      "type": "Feature",
      "geometry": {
        "type": "Point",
        "coordinates": [
          92.78,
          24.83
        ]
      },
      "properties": {
        "event_date": "2022-06-20",
        "year": 2022,
        "location_name": "Silchar Town / Cachar",
        "state": "Assam",
        "river_system": "Barak",
        "estimated_inundation_km2": 280.0,
        "severity": "CATASTROPHIC (Bethukandi breach)",
        "source": "CWC / ASDMA"
      }
    },
    {
      "type": "Feature",
      "geometry": {
        "type": "Point",
        "coordinates": [
          91.01,
          26.32
        ]
      },
      "properties": {
        "event_date": "2022-06-18",
        "year": 2022,
        "location_name": "Barpeta & Nalbari",
        "state": "Assam",
        "river_system": "Manas / Brahmaputra",
        "estimated_inundation_km2": 510.0,
        "severity": "EXTREME",
        "source": "ASDMA"
      }
    },
    {
      "type": "Feature",
      "geometry": {
        "type": "Point",
        "coordinates": [
          94.58,
          27.48
        ]
      },
      "properties": {
        "event_date": "2020-07-15",
        "year": 2020,
        "location_name": "Dhemaji & Lakhimpur",
        "state": "Assam",
        "river_system": "Jiadhaji / Subansiri",
        "estimated_inundation_km2": 380.0,
        "severity": "HIGH",
        "source": "ASDMA"
      }
    },
    {
      "type": "Feature",
      "geometry": {
        "type": "Point",
        "coordinates": [
          92.34,
          26.25
        ]
      },
      "properties": {
        "event_date": "2019-07-16",
        "year": 2019,
        "location_name": "Morigaon & Kaziranga",
        "state": "Assam",
        "river_system": "Brahmaputra / Kopili",
        "estimated_inundation_km2": 460.0,
        "severity": "EXTREME",
        "source": "CWC / ASDMA"
      }
    },
    {
      "type": "Feature",
      "geometry": {
        "type": "Point",
        "coordinates": [
          89.98,
          26.02
        ]
      },
      "properties": {
        "event_date": "2017-08-12",
        "year": 2017,
        "location_name": "Dhubri & Goalpara",
        "state": "Assam",
        "river_system": "Brahmaputra",
        "estimated_inundation_km2": 340.0,
        "severity": "HIGH",
        "source": "CWC"
      }
    },
    {
      "type": "Feature",
      "geometry": {
        "type": "Point",
        "coordinates": [
          94.15,
          26.9
        ]
      },
      "properties": {
        "event_date": "2016-07-28",
        "year": 2016,
        "location_name": "Majuli & Jorhat",
        "state": "Assam",
        "river_system": "Brahmaputra",
        "estimated_inundation_km2": 290.0,
        "severity": "HIGH",
        "source": "ASDMA"
      }
    },
    {
      "type": "Feature",
      "geometry": {
        "type": "Point",
        "coordinates": [
          90.85,
          26.35
        ]
      },
      "properties": {
        "event_date": "2012-06-27",
        "year": 2012,
        "location_name": "Barpeta & Bongaigaon",
        "state": "Assam",
        "river_system": "Brahmaputra / Aie",
        "estimated_inundation_km2": 420.0,
        "severity": "EXTREME",
        "source": "CWC / ASDMA"
      }
    }
  ]
}