{
  "type": "FeatureCollection",
  "metadata": {
    "provider": "OpenStreetMap & Survey of India Gazetteer",
    "region": "North Eastern Region, India",
    "feature_count": 52,
    "license": "ODbL / Open Data",
    "updated_at": "2026-08-25T00:00:00Z"
  },
  "features": [
    { "type": "Feature", "properties": { "name": "Guwahati", "state": "Assam", "rank": "major", "elevation_m": 55, "type": "Metropolitan Hub" }, "geometry": { "type": "Point", "coordinates": [91.7362, 26.1445] } },
    { "type": "Feature", "properties": { "name": "Shillong", "state": "Meghalaya", "rank": "capital", "elevation_m": 1525, "type": "State Capital" }, "geometry": { "type": "Point", "coordinates": [91.8933, 25.5788] } },
    { "type": "Feature", "properties": { "name": "Gangtok", "state": "Sikkim", "rank": "capital", "elevation_m": 1650, "type": "State Capital" }, "geometry": { "type": "Point", "coordinates": [88.6065, 27.3389] } },
    { "type": "Feature", "properties": { "name": "Itanagar", "state": "Arunachal Pradesh", "rank": "capital", "elevation_m": 320, "type": "State Capital" }, "geometry": { "type": "Point", "coordinates": [93.6053, 27.0844] } },
    { "type": "Feature", "properties": { "name": "Aizawl", "state": "Mizoram", "rank": "capital", "elevation_m": 1132, "type": "State Capital" }, "geometry": { "type": "Point", "coordinates": [92.7176, 23.7271] } },
    { "type": "Feature", "properties": { "name": "Kohima", "state": "Nagaland", "rank": "capital", "elevation_m": 1444, "type": "State Capital" }, "geometry": { "type": "Point", "coordinates": [94.1086, 25.6751] } },
    { "type": "Feature", "properties": { "name": "Imphal", "state": "Manipur", "rank": "capital", "elevation_m": 786, "type": "State Capital" }, "geometry": { "type": "Point", "coordinates": [93.9368, 24.8170] } },
    { "type": "Feature", "properties": { "name": "Agartala", "state": "Tripura", "rank": "capital", "elevation_m": 16, "type": "State Capital" }, "geometry": { "type": "Point", "coordinates": [91.2868, 23.8315] } },
    { "type": "Feature", "properties": { "name": "Silchar", "state": "Assam", "rank": "major", "elevation_m": 22, "type": "Barak Valley Hub" }, "geometry": { "type": "Point", "coordinates": [92.7789, 24.8333] } },
    { "type": "Feature", "properties": { "name": "Dibrugarh", "state": "Assam", "rank": "major", "elevation_m": 108, "type": "Upper Assam Hub" }, "geometry": { "type": "Point", "coordinates": [94.9120, 27.4728] } },
    { "type": "Feature", "properties": { "name": "Jorhat", "state": "Assam", "rank": "major", "elevation_m": 116, "type": "Major City" }, "geometry": { "type": "Point", "coordinates": [94.2037, 26.7509] } },
    { "type": "Feature", "properties": { "name": "Tezpur", "state": "Assam", "rank": "major", "elevation_m": 48, "type": "Major City" }, "geometry": { "type": "Point", "coordinates": [92.7926, 26.6528] } },
    { "type": "Feature", "properties": { "name": "Nagaon", "state": "Assam", "rank": "major", "elevation_m": 60, "type": "Central Assam Hub" }, "geometry": { "type": "Point", "coordinates": [92.6840, 26.3464] } },
    { "type": "Feature", "properties": { "name": "Tinsukia", "state": "Assam", "rank": "major", "elevation_m": 125, "type": "Commercial Hub" }, "geometry": { "type": "Point", "coordinates": [95.3468, 27.4922] } },
    { "type": "Feature", "properties": { "name": "Bongaigaon", "state": "Assam", "rank": "major", "elevation_m": 62, "type": "Lower Assam Hub" }, "geometry": { "type": "Point", "coordinates": [90.5534, 26.5024] } },
    { "type": "Feature", "properties": { "name": "Dimapur", "state": "Nagaland", "rank": "major", "elevation_m": 145, "type": "Commercial Gateway" }, "geometry": { "type": "Point", "coordinates": [93.7266, 25.9094] } },

    { "type": "Feature", "properties": { "name": "Cherrapunji (Sohra)", "state": "Meghalaya", "rank": "town", "elevation_m": 1484, "type": "High Rainfall Ridge" }, "geometry": { "type": "Point", "coordinates": [91.7300, 25.2700] } },
    { "type": "Feature", "properties": { "name": "Mawsynram", "state": "Meghalaya", "rank": "town", "elevation_m": 1400, "type": "High Rainfall Ridge" }, "geometry": { "type": "Point", "coordinates": [91.5828, 25.2974] } },
    { "type": "Feature", "properties": { "name": "Tura", "state": "Meghalaya", "rank": "district_hq", "elevation_m": 349, "type": "West Garo Hills HQ" }, "geometry": { "type": "Point", "coordinates": [90.2033, 25.5141] } },
    { "type": "Feature", "properties": { "name": "Jowai", "state": "Meghalaya", "rank": "district_hq", "elevation_m": 1380, "type": "West Jaintia Hills HQ" }, "geometry": { "type": "Point", "coordinates": [92.2000, 25.4500] } },
    { "type": "Feature", "properties": { "name": "Nongpoh", "state": "Meghalaya", "rank": "district_hq", "elevation_m": 485, "type": "Ri-Bhoi HQ" }, "geometry": { "type": "Point", "coordinates": [91.8800, 25.9000] } },
    { "type": "Feature", "properties": { "name": "Williamnagar", "state": "Meghalaya", "rank": "district_hq", "elevation_m": 240, "type": "East Garo Hills HQ" }, "geometry": { "type": "Point", "coordinates": [90.6200, 25.6000] } },
    { "type": "Feature", "properties": { "name": "Baghmara", "state": "Meghalaya", "rank": "district_hq", "elevation_m": 110, "type": "South Garo Hills HQ" }, "geometry": { "type": "Point", "coordinates": [90.6300, 25.2000] } },

    { "type": "Feature", "properties": { "name": "Mangan", "state": "Sikkim", "rank": "district_hq", "elevation_m": 1310, "type": "North Sikkim HQ" }, "geometry": { "type": "Point", "coordinates": [88.5300, 27.5050] } },
    { "type": "Feature", "properties": { "name": "Namchi", "state": "Sikkim", "rank": "district_hq", "elevation_m": 1315, "type": "South Sikkim HQ" }, "geometry": { "type": "Point", "coordinates": [88.3500, 27.1667] } },
    { "type": "Feature", "properties": { "name": "Geyzing", "state": "Sikkim", "rank": "district_hq", "elevation_m": 1900, "type": "West Sikkim HQ" }, "geometry": { "type": "Point", "coordinates": [88.2500, 27.2833] } },
    { "type": "Feature", "properties": { "name": "Singtam", "state": "Sikkim", "rank": "town", "elevation_m": 350, "type": "Teesta River Valley" }, "geometry": { "type": "Point", "coordinates": [88.5000, 27.2333] } },
    { "type": "Feature", "properties": { "name": "Rangpo", "state": "Sikkim", "rank": "town", "elevation_m": 330, "type": "State Gateway" }, "geometry": { "type": "Point", "coordinates": [88.5300, 27.1764] } },
    { "type": "Feature", "properties": { "name": "Chungthang", "state": "Sikkim", "rank": "town", "elevation_m": 1790, "type": "High Himalayan Junction" }, "geometry": { "type": "Point", "coordinates": [88.6500, 27.6000] } },
    { "type": "Feature", "properties": { "name": "Lachen", "state": "Sikkim", "rank": "town", "elevation_m": 2750, "type": "Alpine Valley" }, "geometry": { "type": "Point", "coordinates": [88.5500, 27.7167] } },
    { "type": "Feature", "properties": { "name": "Lachung", "state": "Sikkim", "rank": "town", "elevation_m": 2700, "type": "Alpine Valley" }, "geometry": { "type": "Point", "coordinates": [88.7500, 27.6833] } },

    { "type": "Feature", "properties": { "name": "Tawang", "state": "Arunachal Pradesh", "rank": "district_hq", "elevation_m": 3048, "type": "High Altitude Monastic Valley" }, "geometry": { "type": "Point", "coordinates": [91.8650, 27.5860] } },
    { "type": "Feature", "properties": { "name": "Bomdila", "state": "Arunachal Pradesh", "rank": "district_hq", "elevation_m": 2217, "type": "West Kameng HQ" }, "geometry": { "type": "Point", "coordinates": [92.4159, 27.2645] } },
    { "type": "Feature", "properties": { "name": "Ziro", "state": "Arunachal Pradesh", "rank": "district_hq", "elevation_m": 1572, "type": "Lower Subansiri HQ" }, "geometry": { "type": "Point", "coordinates": [93.8300, 27.5950] } },
    { "type": "Feature", "properties": { "name": "Pasighat", "state": "Arunachal Pradesh", "rank": "district_hq", "elevation_m": 155, "type": "East Siang HQ" }, "geometry": { "type": "Point", "coordinates": [95.3333, 28.0667] } },
    { "type": "Feature", "properties": { "name": "Aalo (Along)", "state": "Arunachal Pradesh", "rank": "district_hq", "elevation_m": 300, "type": "West Siang HQ" }, "geometry": { "type": "Point", "coordinates": [94.8000, 28.1667] } },
    { "type": "Feature", "properties": { "name": "Tezu", "state": "Arunachal Pradesh", "rank": "district_hq", "elevation_m": 210, "type": "Lohit HQ" }, "geometry": { "type": "Point", "coordinates": [96.1667, 27.9167] } },
    { "type": "Feature", "properties": { "name": "Roing", "state": "Arunachal Pradesh", "rank": "district_hq", "elevation_m": 390, "type": "Lower Dibang Valley HQ" }, "geometry": { "type": "Point", "coordinates": [95.8333, 28.1333] } },
    { "type": "Feature", "properties": { "name": "Daporijo", "state": "Arunachal Pradesh", "rank": "district_hq", "elevation_m": 600, "type": "Upper Subansiri HQ" }, "geometry": { "type": "Point", "coordinates": [94.2167, 27.9833] } },
    { "type": "Feature", "properties": { "name": "Khonsa", "state": "Arunachal Pradesh", "rank": "district_hq", "elevation_m": 1215, "type": "Tirap HQ" }, "geometry": { "type": "Point", "coordinates": [95.5667, 27.0167] } },

    { "type": "Feature", "properties": { "name": "Mokokchung", "state": "Nagaland", "rank": "district_hq", "elevation_m": 1325, "type": "Mokokchung HQ" }, "geometry": { "type": "Point", "coordinates": [94.5204, 26.3256] } },
    { "type": "Feature", "properties": { "name": "Tuensang", "state": "Nagaland", "rank": "district_hq", "elevation_m": 1371, "type": "Tuensang HQ" }, "geometry": { "type": "Point", "coordinates": [94.8300, 26.2800] } },
    { "type": "Feature", "properties": { "name": "Wokha", "state": "Nagaland", "rank": "district_hq", "elevation_m": 1313, "type": "Wokha HQ" }, "geometry": { "type": "Point", "coordinates": [94.2600, 26.1000] } },
    { "type": "Feature", "properties": { "name": "Mon", "state": "Nagaland", "rank": "district_hq", "elevation_m": 655, "type": "Mon HQ" }, "geometry": { "type": "Point", "coordinates": [95.0600, 26.7500] } },
    { "type": "Feature", "properties": { "name": "Phek", "state": "Nagaland", "rank": "district_hq", "elevation_m": 1024, "type": "Phek HQ" }, "geometry": { "type": "Point", "coordinates": [94.5000, 25.6800] } },
    { "type": "Feature", "properties": { "name": "Zunheboto", "state": "Nagaland", "rank": "district_hq", "elevation_m": 1874, "type": "Zunheboto HQ" }, "geometry": { "type": "Point", "coordinates": [94.5200, 25.9700] } },

    { "type": "Feature", "properties": { "name": "Churachandpur", "state": "Manipur", "rank": "district_hq", "elevation_m": 922, "type": "Churachandpur HQ" }, "geometry": { "type": "Point", "coordinates": [93.6833, 24.3333] } },
    { "type": "Feature", "properties": { "name": "Ukhrul", "state": "Manipur", "rank": "district_hq", "elevation_m": 1662, "type": "Ukhrul HQ" }, "geometry": { "type": "Point", "coordinates": [94.3667, 25.1167] } },
    { "type": "Feature", "properties": { "name": "Senapati", "state": "Manipur", "rank": "district_hq", "elevation_m": 1060, "type": "Senapati HQ" }, "geometry": { "type": "Point", "coordinates": [94.0167, 25.2667] } },
    { "type": "Feature", "properties": { "name": "Tamenglong", "state": "Manipur", "rank": "district_hq", "elevation_m": 1260, "type": "Tamenglong HQ" }, "geometry": { "type": "Point", "coordinates": [93.4833, 24.9833] } },
    { "type": "Feature", "properties": { "name": "Chandel", "state": "Manipur", "rank": "district_hq", "elevation_m": 560, "type": "Chandel HQ" }, "geometry": { "type": "Point", "coordinates": [94.0000, 24.4000] } },

    { "type": "Feature", "properties": { "name": "Lunglei", "state": "Mizoram", "rank": "district_hq", "elevation_m": 722, "type": "Lunglei HQ" }, "geometry": { "type": "Point", "coordinates": [92.7333, 22.8833] } },
    { "type": "Feature", "properties": { "name": "Champhai", "state": "Mizoram", "rank": "district_hq", "elevation_m": 1678, "type": "Champhai HQ" }, "geometry": { "type": "Point", "coordinates": [93.3333, 23.4667] } },
    { "type": "Feature", "properties": { "name": "Kolasib", "state": "Mizoram", "rank": "district_hq", "elevation_m": 615, "type": "Kolasib HQ" }, "geometry": { "type": "Point", "coordinates": [92.6833, 24.2333] } },
    { "type": "Feature", "properties": { "name": "Serchhip", "state": "Mizoram", "rank": "district_hq", "elevation_m": 1296, "type": "Serchhip HQ" }, "geometry": { "type": "Point", "coordinates": [92.8500, 23.3500] } },
    { "type": "Feature", "properties": { "name": "Lawngtlai", "state": "Mizoram", "rank": "district_hq", "elevation_m": 780, "type": "Lawngtlai HQ" }, "geometry": { "type": "Point", "coordinates": [92.9000, 22.5333] } },

    { "type": "Feature", "properties": { "name": "Dharmanagar", "state": "Tripura", "rank": "district_hq", "elevation_m": 21, "type": "North Tripura HQ" }, "geometry": { "type": "Point", "coordinates": [92.1667, 24.3667] } },
    { "type": "Feature", "properties": { "name": "Udaipur", "state": "Tripura", "rank": "district_hq", "elevation_m": 28, "type": "Gomati HQ" }, "geometry": { "type": "Point", "coordinates": [91.4833, 23.5333] } },
    { "type": "Feature", "properties": { "name": "Kailashahar", "state": "Tripura", "rank": "district_hq", "elevation_m": 22, "type": "Unakoti HQ" }, "geometry": { "type": "Point", "coordinates": [92.0000, 24.3333] } },
    { "type": "Feature", "properties": { "name": "Belonia", "state": "Tripura", "rank": "district_hq", "elevation_m": 23, "type": "South Tripura HQ" }, "geometry": { "type": "Point", "coordinates": [91.4500, 23.2500] } },
    { "type": "Feature", "properties": { "name": "Ambassa", "state": "Tripura", "rank": "district_hq", "elevation_m": 50, "type": "Dhalai HQ" }, "geometry": { "type": "Point", "coordinates": [91.8500, 23.9167] } }
  ]
}
