{
  "type": "FeatureCollection",
  "name": "ner_highways",
  "crs": {
    "type": "name",
    "properties": {
      "name": "urn:ogc:def:crs:OGC:1.3:CRS84"
    }
  },
  "features": [
    {
      "type": "Feature",
      "geometry": {
        "type": "LineString",
        "coordinates": [
          [
            88.42,
            26.72
          ],
          [
            88.48,
            26.9
          ],
          [
            88.52,
            27.12
          ],
          [
            88.58,
            27.25
          ],
          [
            88.62,
            27.33
          ]
        ]
      },
      "properties": {
        "name": "NH-10 (Siliguri - Gangtok Highway)",
        "highway_type": "National Highway",
        "corridor": "Sikkim Lifeline (Teesta Valley)"
      }
    },
    {
      "type": "Feature",
      "geometry": {
        "type": "LineString",
        "coordinates": [
          [
            90.0,
            26.15
          ],
          [
            90.75,
            26.18
          ],
          [
            91.75,
            26.15
          ],
          [
            92.7,
            26.35
          ],
          [
            93.15,
            26.55
          ]
        ]
      },
      "properties": {
        "name": "NH-27 (East-West Corridor / Assam Valley)",
        "highway_type": "National Highway",
        "corridor": "Dhubri - Guwahati - Nagaon - Silchar"
      }
    },
    {
      "type": "Feature",
      "geometry": {
        "type": "LineString",
        "coordinates": [
          [
            91.75,
            26.12
          ],
          [
            91.82,
            25.85
          ],
          [
            91.88,
            25.58
          ],
          [
            92.02,
            25.3
          ],
          [
            92.01,
            25.18
          ]
        ]
      },
      "properties": {
        "name": "NH-40 (Guwahati - Shillong - Dawki Expressway)",
        "highway_type": "National Highway",
        "corridor": "Meghalaya Main Trunk Route"
      }
    },
    {
      "type": "Feature",
      "geometry": {
        "type": "LineString",
        "coordinates": [
          [
            91.86,
            27.58
          ],
          [
            92.42,
            27.26
          ],
          [
            93.6,
            27.1
          ],
          [
            94.1,
            27.45
          ],
          [
            95.32,
            28.06
          ]
        ]
      },
      "properties": {
        "name": "NH-13 (Trans-Arunachal Highway)",
        "highway_type": "National Highway",
        "corridor": "Tawang - Bomdila - Itanagar - Pasighat"
      }
    },
    {
      "type": "Feature",
      "geometry": {
        "type": "LineString",
        "coordinates": [
          [
            93.94,
            24.81
          ],
          [
            93.98,
            24.5
          ],
          [
            94.15,
            24.3
          ],
          [
            94.3,
            24.24
          ]
        ]
      },
      "properties": {
        "name": "NH-102 (Imphal - Moreh Asian Highway AH-1)",
        "highway_type": "National Highway",
        "corridor": "Manipur Indo-Myanmar Transit"
      }
    }
  ]
}